IRIDIUM 36              
1 24967U 97056C   24272.46376740  .00001049  00000+0  34721-3 0  9992
2 24967  86.3906 282.9182 0002421  95.1293 265.0181 14.37055396414625
IRIDIUM 39              
1 25042U 97069D   24272.51636669  .00001714  00000+0  45155-3 0  9998
2 25042  86.3926 323.3348 0020443  99.8063 260.5451 14.48380586411076
IRIDIUM 38              
1 25043U 97069E   24272.64691839  .00001203  00000+0  39504-3 0  9997
2 25043  86.4007 343.2058 0001334 152.5360 207.5908 14.37553230408634
IRIDIUM 42              
1 25077U 97077A   24272.61401418  .00001174  00000+0  39906-3 0  9995
2 25077  86.4018 349.0621 0001561 103.3211 256.8160 14.35829905403651
IRIDIUM 44              
1 25078U 97077B   24272.43743857  .00001131  00000+0  35554-3 0  9990
2 25078  86.3984 331.7694 0003263 126.7333 233.4166 14.39672434406035
IRIDIUM 45              
1 25104U 97082A   24272.23778793  .00018889  00000+0  94456-3 0  9995
2 25104  86.3708 173.7089 0144297 222.8278 136.1649 15.08561709412367
IRIDIUM 24              
1 25105U 97082B   24272.32775979  .00001507  00000+0  45827-3 0  9996
2 25105  86.3984 191.2324 0009757 214.2440 145.8132 14.41494649405481
IRIDIUM 51              
1 25262U 98018A   24272.27649338  .00027367  00000+0  10847-2 0  9998
2 25262  86.3996 183.1743 0131190 159.3348 201.3272 15.17555399407014
